{
  "type": "FeatureCollection",
  "features": [
    {
      "type": "Feature",
      "properties": {},
      "geometry": {
        "type": "Polygon",
        "coordinates": [
          [
            [
              112.674103,
              -7.217445
            ],
            [
              113.147072,
              -7.217445
            ],
            [
              113.147072,
              -6.87881
            ],
            [
              112.674103,
              -6.87881
            ],
            [
              112.674103,
              -7.217445
            ]
          ]
        ]
      }
    }
  ]
}